ALOS (DAICHI)           
1 28931U 06002A   26040.45432585  .00001823  00000+0  31433-3 0  9999
2 28931  98.1170 356.5627 0001971  64.5774 295.5635 14.69715799 69330
H-2A R/B                
1 28932U 06002B   26040.36139518  .00009109  00000+0  46368-3 0  9998
2 28932  98.2360 184.9729 0052784 338.7408  21.1628 15.15846943 90143
RESURS-DK 1             
1 29228U 06021A   26040.16658403  .00003259  00000+0  19244-3 0  9998
2 29228  69.9346 310.7957 0004574 204.7790 155.3157 15.12577967 83214
CZ-4B R/B               
1 29507U 06046C   26040.57095841  .00004920  00000+0  25182-3 0  9995
2 29507  97.5653  85.5532 0033585   7.9375 352.2382 15.16598969 55782
CZ-2C R/B               
1 31114U 07010B   26040.33443603  .00000138  00000+0  82268-4 0  9997
2 31114  98.3970 155.0371 0059262  17.7665 342.5566 14.20236248975695
COSMO-SKYMED 1          
1 31598U 07023A   26040.58008611  .00003689  00000+0  33156-3 0  9995
2 31598  97.8857 231.3921 0000847  80.8769 279.2548 14.96308916 10702
COSMOS 2428             
1 31792U 07029A   26040.64138081  .00000316  00000+0  19526-3 0  9998
2 31792  70.9396 262.2211 0007359 307.9711  52.0744 14.12933530960138
SL-16 R/B               
1 31793U 07029B   26040.63753983  .00000387  00000+0  22548-3 0  9998
2 31793  70.9735 231.3505 0001980 278.2121 146.0341 14.14832750961400
KORONAS-FOTON           
1 33504U 09003A   26040.22874063  .00011292  00000+0  25878-3 0  9998
2 33504  82.4317 305.4475 0008938 259.3060 100.7181 15.42567366941358
CZ-2C R/B               
1 37731U 11030B   26040.45213291  .00001837  00000+0  23737-3 0  9998
2 37731  97.8495 358.2935 0054233  82.4178  37.1717 14.81112276785916
H-2A R/B                
1 38341U 12025E   26040.48480266  .00004176  00000+0  38105-3 0  9996
2 38341  98.4677   5.2913 0045744  46.1266 314.3716 14.94916398744005
SHIJIAN-16 (SJ-16)      
1 39358U 13057A   26040.60556727  .00000872  00000+0  88165-4 0  9992
2 39358  74.9705 238.2505 0016762 182.7414 177.3685 14.92240586667317
